CUBEBUG-2 (LO-74)       
1 39440U 13066AA  26167.12537931  .00003994  00000+0  37024-3 0  9992
2 39440  97.8908 116.0990 0058456  32.4816 327.9979 14.93754109676830
FUNCUBE-1 (AO-73)       
1 39444U 13066AE  26167.19478169  .00005705  00000+0  35517-3 0  9997
2 39444  97.8274 138.6199 0035559 204.3953 155.5593 15.09480360679510
UWE-3                   
1 39446U 13066AG  26166.41095872  .00003615  00000+0  31229-3 0  9993
2 39446  97.8693 122.4726 0047855 327.0614  32.7628 14.97011844677317
UNISAT-6                
1 40012U 14033C   26167.32647924  .00002250  00000+0  24492-3 0  9999
2 40012  97.7877 320.0533 0046277  72.0524 288.5730 14.88242939646038
DUCHIFAT-1              
1 40021U 14033M   26166.42257015  .00087303  00000+0  90897-3 0  9991
2 40021  98.0462 225.3358 0003280 119.3803 240.7782 15.64281009655477
QB50P1                  
1 40025U 14033R   26167.29329031  .00006542  00000+0  32293-3 0  9991
2 40025  98.0960 178.3767 0007718 218.6881 141.3799 15.18249784652894
LILACSAT-2              
1 40908U 15049K   26167.30477911  .00014150  00000+0  24158-3 0  9997
2 40908  97.4642 204.1128 0005460 249.1655 110.9012 15.51420206595616
FOX-1A (AO-85)          
1 40967U 15058D   26166.74276637  .00002067  00000+0  19289-3 0  9994
2 40967  64.7762 283.4725 0130368  57.1508 304.2075 14.90963979113359
CAS-2T & KS-1Q          
1 41847U 16066G   26167.20170864  .00001550  00000+0  22417-3 0  9992
2 41847  98.3821 242.9493 0342753 132.4604 230.6111 14.44691734504651
RADFXSAT (FOX-1B)       
1 43017U 17073E   26167.14963034  .00006534  00000+0  28659-3 0  9995
2 43017  97.4703  34.3858 0149692 332.8831  26.4636 15.12705652465238
DIWATA-2B               
1 43678U 18084H   26167.30293372  .00001897  00000+0  15583-3 0  9999
2 43678  98.1175   3.4727 0012428 172.9474 187.1925 15.00447809416085
ES'HAIL 2               
1 43700U 18090A   26167.11962374  .00000144  00000+0  00000+0 0  9994
2 43700   0.0173   5.4784 0001593 118.9306 208.8329  1.00270088 27660
FOX-1CLIFF (AO-95)      
1 43770U 18099N   26167.16008802  .00008871  00000+0  34028-3 0  9998
2 43770  97.4381 227.4098 0008085   1.8957 358.2311 15.26694491413062
ITASAT                  
1 43786U 18099AE  26167.09945745  .00005979  00000+0  28803-3 0  9993
2 43786  97.4027 218.6326 0012212   4.0961 356.0371 15.19046010412745
JY1SAT (JO-97)          
1 43803U 18099AX  26167.11705126  .00014353  00000+0  44350-3 0  9994
2 43803  97.4130 229.9474 0004293 267.4350  92.6401 15.33625681413466
UWE-4                   
1 43880U 18111E   26167.05014457  .00026306  00000+0  53861-3 0  9995
2 43880  97.5856  95.3888 0005718 347.9262  12.1848 15.46065532410602
TIANYAN 01              
1 44881U 19093C   26167.23699984  .00001296  00000+0  15222-3 0  9991
2 44881  97.7539 239.4921 0015129  89.7707 270.5243 14.86520887351273
RS-44 & BREEZE-KM R/B   
1 44909U 19096E   26167.22337952  .00000013  00000+0  28023-5 0  9999
2 44909  82.5218 340.3455 0218124 146.4115 215.1037 12.79748866302224
SALSAT                  
1 46495U 20068K   26166.96813813  .00006820  00000+0  23912-3 0  9999
2 46495  97.8844 169.9584 0008114 313.3675  46.6887 15.29785416315178
XW-3 (CAS-9)            
1 50466U 21131B   26167.29100005  .00000460  00000+0  15581-3 0  9990
2 50466  98.4987 259.6853 0005370  98.8882 261.2915 14.41357076234984
GREENCUBE (IO-117)      
1 53109U 22080E   26164.29338770 -.00000003  00000+0  00000+0 0  9990
2 53109  70.1444 299.5995 0008910 290.4576  69.5127  6.42583230 91811
UMKA 1 (RS40S)          
1 57172U 23091G   26167.30436376  .00005728  00000+0  26223-3 0  9990
2 57172  97.5050 226.0049 0014224 120.4106 239.8537 15.20810830163870
CUBESX-HSE 3 (RS42S)    
1 57178U 23091N   26167.25894190  .00011640  00000+0  38789-3 0  9992
2 57178  97.5094 232.8343 0012045  97.6606 262.6004 15.31196382164285
MONITOR-3 (RS58S)       
1 57180U 23091Q   26167.28138393  .00008942  00000+0  33101-3 0  9998
2 57180  97.5085 230.7206 0013116 103.6582 256.6118 15.27827556164158
MONITOR-4 (RS57S)       
1 57182U 23091S   26167.19500099  .00009076  00000+0  33505-3 0  9993
2 57182  97.5079 230.6048 0013109 104.2135 256.0562 15.27910857164142
MONITOR-2 (RS39S)       
1 57184U 23091U   26167.25863046  .00004318  00000+0  20982-3 0  9995
2 57184  97.5073 225.5475 0012712 113.8567 246.4001 15.18903550163815
SVYATOBOR 1 (RS60S)     
1 57187U 23091X   26167.27278907  .00007649  00000+0  29446-3 0  9990
2 57187  97.5091 231.0847 0010884  97.0602 263.1875 15.26602729164172
VIZARD-METEO (RS38S)    
1 57189U 23091Z   26167.30072381  .00013783  00000+0  39487-3 0  9996
2 57189  97.5094 236.7677 0008319  80.4667 279.7516 15.36003143164550
POLYTECH-UNIVERSE 3 (R*)
1 57191U 23091AB  26167.28595534  .00004340  00000+0  20937-3 0  9995
2 57191  97.5048 225.0792 0016804 129.6852 230.5867 15.19106444163812
UTMN 2 (RS27S)          
1 57203U 23091AP  26167.14640589  .00011422  00000+0  37127-3 0  9993
2 57203  97.5090 234.3528 0009310  86.9005 273.3302 15.32031789164388
